BEIDOU-3 M11 (C25)      
1 43603U 18067B   24217.64243740  .00000021  00000+0  00000+0 0  9995
2 43603  54.2181 204.1237 0003931 359.5725   0.4051  1.86231547 40450
BEIDOU-3 M13 (C32)      
1 43622U 18072A   24217.06712359 -.00000030  00000+0  00000+0 0  9996
2 43622  56.0298  85.2821 0005354 314.0538  45.9853  1.86231610 39954
BEIDOU-3 M14 (C33)      
1 43623U 18072B   24218.00648852 -.00000027  00000+0  00000+0 0  9994
2 43623  56.0325  85.2440 0004246 354.8593   5.2220  1.86231649 39965
BEIDOU-3 M16 (C35)      
1 43647U 18078A   24217.09494472 -.00000103  00000+0  00000+0 0  9996
2 43647  54.6780 323.7756 0006112  20.9721 339.0760  1.86232292 39454
BEIDOU-3 M15 (C34)      
1 43648U 18078B   24217.76104727 -.00000101  00000+0  00000+0 0  9990
2 43648  54.6734 323.7553 0003014  37.3845 322.6622  1.86232417 39483
BEIDOU-3 G1 (C59)       
1 43683U 18085A   24217.91238345 -.00000289  00000+0  00000+0 0  9995
2 43683   2.3086 107.7780 0003479   6.5307 308.1148  1.00268923 21222
COSMOS 2529 (757)       
1 43687U 18086A   24217.34768177  .00000046  00000+0  00000+0 0  9998
2 43687  64.2995 215.6451 0011818 259.5574 100.3243  2.13102082 44757
BEIDOU-3 M17 (C36)      
1 43706U 18093A   24217.37494252  .00000023  00000+0  00000+0 0  9996
2 43706  54.2133 205.4343 0010387 282.5290  77.3363  1.86228482 38841
BEIDOU-3 M18 (C37)      
1 43707U 18093B   24217.23989885  .00000024  00000+0  00000+0 0  9994
2 43707  54.2142 205.4306 0008404 307.1157  52.7896  1.86229993 38839
GPS BIII-1  (PRN 04)    
1 43873U 18109A   24218.21247323 -.00000018  00000+0  00000+0 0  9993
2 43873  55.3137 119.0906 0029632 193.4819 353.5854  2.00558340 41368
BEIDOU-3 IGSO-1 (C38)   
1 44204U 19023A   24217.89213875 -.00000198  00000+0  00000+0 0  9995
2 44204  57.7158  44.7121 0022984 205.0632 144.3142  1.00287181 19525
BEIDOU-2 G8 (C01)       
1 44231U 19027A   24218.19940295 -.00000256  00000+0  00000+0 0  9991
2 44231   1.5942  74.1285 0002044 178.4639 277.9751  1.00272544 19241
COSMOS 2534 (758)       
1 44299U 19030A   24218.16877545  .00000042  00000+0  00000+0 0  9995
2 44299  64.3726 215.5753 0013646 278.5796 125.4615  2.13102256 40404
BEIDOU-3 IGSO-2 (C39)   
1 44337U 19035A   24217.81050760 -.00000157  00000+0  00000+0 0  9994
2 44337  55.1840 164.8431 0035066 204.8125 354.7805  1.00282415 18830
GPS BIII-2  (PRN 18)    
1 44506U 19056A   24217.82463845 -.00000111  00000+0  00000+0 0  9998
2 44506  55.8395 358.1612 0044985 189.3111 341.6984  2.00572526 36403
BEIDOU-3 M24 (C46)      
1 44542U 19061A   24217.30952219  .00000024  00000+0  00000+0 0  9997
2 44542  54.4411 205.7327 0008186 343.2980  16.6574  1.86229373 33105
BEIDOU-3 M23 (C45)      
1 44543U 19061B   24217.70594671  .00000023  00000+0  00000+0 0  9995
2 44543  54.4393 205.6879 0005762 324.1539 214.1105  1.86229623 33104
BEIDOU-3 IGSO-3 (C40)   
1 44709U 19073A   24217.59993513 -.00000166  00000+0  00000+0 0  9996
2 44709  55.9658 288.2161 0041132 189.1956 170.8462  1.00288039 17627
BEIDOU-3 M22 (C44)      
1 44793U 19078A   24217.69209786 -.00000101  00000+0  00000+0 0  9996
2 44793  54.5254 323.6811 0004936  30.2330 329.8210  1.86232335 31957
BEIDOU-3 M21 (C43)      
1 44794U 19078B   24216.74786643 -.00000104  00000+0  00000+0 0  9997
2 44794  54.4998 323.6891 0002831  25.3192 334.7166  1.86232755 31943
COSMOS 2544 (759)       
1 44850U 19088A   24217.19305039 -.00000003  00000+0  00000+0 0  9995
2 44850  65.2087  96.5548 0012014 254.9834 104.9633  2.13102168 36189
BEIDOU-3 M19 (C41)      
1 44864U 19090A   24217.25597288 -.00000030  00000+0  00000+0 0  9999
2 44864  55.9643  85.4440 0016127 284.5788 248.7574  1.86231902 31535
BEIDOU-3 M20 (C42)      
1 44865U 19090B   24218.24915049 -.00000026  00000+0  00000+0 0  9994
2 44865  55.9669  85.4444 0014044 299.5530 269.3780  1.86231851 31525
BEIDOU-3 G2 (C60)       
1 45344U 20017A   24218.11506497 -.00000150  00000+0  00000+0 0  9995
2 45344   2.3762  31.4551 0002359 155.3854 248.7656  1.00272272 16447
COSMOS 2545 (760)       
1 45358U 20018A   24217.38985340 -.00000090  00000+0  00000+0 0  9990
2 45358  64.7249 336.2797 0009423 234.8030 125.1167  2.13102619 34133
BEIDOU-3 G3 (C61)       
1 45807U 20040A   24217.91902498 -.00000363  00000+0  00000+0 0  9999
2 45807   0.8618  47.8210 0003655   3.1940 344.3293  1.00268748 15232
GPS BIII-3  (PRN 23)    
1 45854U 20041A   24217.91631641 -.00000051  00000+0  00000+0 0  9995
2 45854  56.1645  55.5129 0045330 192.9351 339.2153  2.00572899 30367
GALAXY 30 (WAAS/PRN 135)
1 46114U 20056C   24217.71656347  .00000027  00000+0  00000+0 0  9991
2 46114   0.0165  67.1287 0002038  78.8913 300.6882  1.00273248 14458
COSMOS 2547 (705K)      
1 46805U 20075A   24217.10755066  .00000048  00000+0  00000+0 0  9993
2 46805  64.6015 215.2669 0009025 242.0263 117.8979  2.13102993 29376
GPS BIII-4  (PRN 14)    
1 46826U 20078A   24217.44621958  .00000034  00000+0  00000+0 0  9993
2 46826  54.1644 238.4465 0048418 198.4430 331.4448  2.00560395 27835
GPS BIII-5  (PRN 11)    
1 48859U 21054A   24217.41365160 -.00000112  00000+0  00000+0 0  9991
2 48859  55.3655 359.8066 0016745 218.6482 111.5079  2.00555368 23076
QZS-1R (QZSS/PRN 196)   
1 49336U 21096A   24217.59575160 -.00000318  00000+0  00000+0 0  9998
2 49336  36.0403  89.7920 0759158 272.4058 296.0519  1.00241649 10179
GSAT0223 (GALILEO 27)   
1 49809U 21116A   24216.77540628 -.00000107  00000+0  00000+0 0  9992
2 49809  57.2981   0.0856 0002820 177.2845 171.4748  1.70476279 16540
GSAT0224 (GALILEO 28)   
1 49810U 21116B   24215.73204025 -.00000108  00000+0  00000+0 0  9998
2 49810  57.2985   0.1120 0002266 162.3782  18.5539  1.70476208 16552
COSMOS 2557 (706K)      
1 52984U 22075A   24216.80365232 -.00000094  00000+0  00000+0 0  9990
2 52984  64.6530 338.4257 0011373 275.1772  84.6969  2.13102340 16175
COSMOS 2559 (707K)      
1 54031U 22130A   24216.74669490 -.00000094  00000+0  00000+0 0  9993
2 54031  64.6250 338.5436 0006924 214.7324 145.2261  2.13101635 14147
COSMOS 2564 (761)       
1 54377U 22161A   24217.87595866  .00000043  00000+0  00000+0 0  9993
2 54377  64.7429 215.3546 0011577 225.7536 134.1636  2.13102172 13116
GPS BIII-6  (PRN 28)    
1 55268U 23009A   24217.15327286 -.00000008  00000+0  00000+0 0  9997
2 55268  55.0873 175.2874 0000893  64.1008 121.7557  2.00561285 11569
BEIDOU-3 G4             
1 56564U 23066A   24217.84476691 -.00000120  00000+0  00000+0 0  9996
2 56564   2.0038 288.2575 0005988 216.0637 273.6880  1.00272471  4566
IRNSS-1J (NVS-01)       
1 56759U 23076A   24215.97849793 -.00000347  00000+0  00000+0 0  9993
2 56759   3.8805 265.1227 0005179   2.5227 166.0248  1.00263911  4265
COSMOS 2569 (703K)      
1 57517U 23114A   24217.89304154  .00000000  00000+0  00000+0 0  9994
2 57517  64.9366  95.6630 0009775 297.7635  62.2203  2.13103879  7744
BEIDOU-3 M25            
1 58654U 23207A   24217.36770979 -.00000031  00000+0  00000+0 0  9999
2 58654  55.1481  85.4231 0001268 325.9138  34.1611  1.86232379  4141
BEIDOU-3 M26            
1 58655U 23207B   24217.16675950 -.00000032  00000+0  00000+0 0  9992
2 58655  55.1499  85.4152 0001696 268.3534  91.7096  1.86232067  4126
GSAT0225 (GALILEO 29)   
1 59598U 24079A   24213.41004935 -.00000046  00000+0  00000+0 0  9995
2 59598  54.7235 120.2727 0001654 226.6061 319.9847  1.70474113  1622
GSAT0227 (GALILEO 30)   
1 59600U 24079C   24217.39543960 -.00000029  00000+0  00000+0 0  9997
2 59600  54.7203 120.1623 0001813  95.3004 264.7541  1.70474120  1749
